[{"OBJECT_NAME":"STARLINK-5646","OBJECT_ID":"2023-015N","EPOCH":"2026-03-09T02:27:52.099776","MEAN_MOTION":15.02524276,"ECCENTRICITY":0.0001039,"INCLINATION":43.0039,"RA_OF_ASC_NODE":329.3585,"ARG_OF_PERICENTER":275.3748,"MEAN_ANOMALY":84.6976,"EPHEMERIS_TYPE":0,"CLASSIFICATION_TYPE":"U","NORAD_CAT_ID":55461,"ELEMENT_SET_NO":999,"REV_AT_EPOCH":17066,"BSTAR":-0.00028306209,"MEAN_MOTION_DOT":-4.024e-5,"MEAN_MOTION_DDOT":0},{"OBJECT_NAME":"CZ-4B DEB","OBJECT_ID":"2008-053J","EPOCH":"2026-03-09T11:59:22.469568","MEAN_MOTION":15.1637526,"ECCENTRICITY":0.00601661,"INCLINATION":97.7872,"RA_OF_ASC_NODE":170.5072,"ARG_OF_PERICENTER":304.792,"MEAN_ANOMALY":54.7659,"EPHEMERIS_TYPE":0,"CLASSIFICATION_TYPE":"U","NORAD_CAT_ID":35573,"ELEMENT_SET_NO":999,"REV_AT_EPOCH":91868,"BSTAR":0.0017688276,"MEAN_MOTION_DOT":0.00036031,"MEAN_MOTION_DDOT":0}]
